[{"OBJECT_NAME":"CENTISPACE-1 S12","OBJECT_ID":"2025-007G","EPOCH":"2026-03-09T21:41:43.238688","MEAN_MOTION":13.83332749,"ECCENTRICITY":0.000922,"INCLINATION":54.9763,"RA_OF_ASC_NODE":278.6057,"ARG_OF_PERICENTER":288.5805,"MEAN_ANOMALY":71.4151,"EPHEMERIS_TYPE":0,"CLASSIFICATION_TYPE":"U","NORAD_CAT_ID":62581,"ELEMENT_SET_NO":999,"REV_AT_EPOCH":6102,"BSTAR":0.0001043832,"MEAN_MOTION_DOT":-2.6e-7,"MEAN_MOTION_DDOT":0},{"OBJECT_NAME":"SL-8 R\/B","OBJECT_ID":"1985-110B","EPOCH":"2026-03-09T22:42:24.609888","MEAN_MOTION":13.77259781,"ECCENTRICITY":0.00308745,"INCLINATION":82.9337,"RA_OF_ASC_NODE":150.5706,"ARG_OF_PERICENTER":164.963,"MEAN_ANOMALY":195.2453,"EPHEMERIS_TYPE":0,"CLASSIFICATION_TYPE":"U","NORAD_CAT_ID":16292,"ELEMENT_SET_NO":999,"REV_AT_EPOCH":2348,"BSTAR":9.2221325e-5,"MEAN_MOTION_DOT":1.07e-6,"MEAN_MOTION_DDOT":0}]
